{"type": "FeatureCollection", "features": [ {"type": "Feature", "properties": {"norad_id": 43566, "name": "GSAT0219 (GALILEO 23)", "group": "gnss", "lat": -18.83991653429677, "lon": -25.75508757482234, "alt_km": 23214.11978263772, "timestamp": "2025-12-08T05:48:09.278686+00:00", "meta": {"OBJECT_NAME": "GSAT0219 (GALILEO 23)", "OBJECT_ID": "2018-060C", "EPOCH": "2025-12-05T22:22:25.031424", "MEAN_MOTION": 1.70475627, "ECCENTRICITY": 0.00057672, "INCLINATION": 57.232, "RA_OF_ASC_NODE": 347.0061, "ARG_OF_PERICENTER": 285.4394, "MEAN_ANOMALY": 74.5216, "EPHEMERIS_TYPE": 0, "CLASSIFICATION_TYPE": "U", "NORAD_CAT_ID": 43566, "ELEMENT_SET_NO": 999, "REV_AT_EPOCH": 4589, "BSTAR": 0, "MEAN_MOTION_DOT": -7.8e-07, "MEAN_MOTION_DDOT": 0}, "tle": {"line1": "1 43566U 18060C   25339.93223416 -.00000078  00000+0  00000+0 0  9995", "line2": "2 43566  57.2320 347.0061 0005767 285.4394  74.5216  1.70475627 45896"}}, "geometry": {"type": "Point", "coordinates": [-25.75508757482234, -18.83991653429677]}}, {"type": "Feature", "properties": {"norad_id": 43567, "name": "GSAT0220 (GALILEO 24)", "group": "gnss", "lat": -18.14294768873636, "lon": 179.12803034856987, "alt_km": 23221.765572337874, "timestamp": "2025-12-08T05:48:09.278697+00:00", "meta": {"OBJECT_NAME": "GSAT0220 (GALILEO 24)", "OBJECT_ID": "2018-060D", "EPOCH": "2025-12-07T07:49:54.342624", "MEAN_MOTION": 1.70475454, "ECCENTRICITY": 0.00061757, "INCLINATION": 57.2312, "RA_OF_ASC_NODE": 346.9681, "ARG_OF_PERICENTER": 282.9528, "MEAN_ANOMALY": 76.9979, "EPHEMERIS_TYPE": 0, "CLASSIFICATION_TYPE": "U", "NORAD_CAT_ID": 43567, "ELEMENT_SET_NO": 999, "REV_AT_EPOCH": 4590, "BSTAR": 0, "MEAN_MOTION_DOT": -8.3e-07, "MEAN_MOTION_DDOT": 0}, "tle": {"line1": "1 43567U 18060D   25341.32632341 -.00000083  00000+0  00000+0 0  9999", "line2": "2 43567  57.2312 346.9681 0006175 282.9528  76.9979  1.70475454 45901"}}, "geometry": {"type": "Point", "coordinates": [179.12803034856987, -18.14294768873636]}}, {"type": "Feature", "properties": {"norad_id": 43581, "name": "BEIDOU-3 M5 (C23)", "group": "gnss", "lat": -12.134265757559367, "lon": 17.769748544058512, "alt_km": 21535.577878713273, "timestamp": "2025-12-08T05:48:09.278708+00:00", "meta": {"OBJECT_NAME": "BEIDOU-3 M5 (C23)", "OBJECT_ID": "2018-062A", "EPOCH": "2025-12-07T09:56:06.121536", "MEAN_MOTION": 1.86228654, "ECCENTRICITY": 0.00021243, "INCLINATION": 54.089, "RA_OF_ASC_NODE": 188.8244, "ARG_OF_PERICENTER": 353.2088, "MEAN_ANOMALY": 6.859, "EPHEMERIS_TYPE": 0, "CLASSIFICATION_TYPE": "U", "NORAD_CAT_ID": 43581, "ELEMENT_SET_NO": 999, "REV_AT_EPOCH": 5006, "BSTAR": 0, "MEAN_MOTION_DOT": 5.9e-07, "MEAN_MOTION_DDOT": 0}, "tle": {"line1": "1 43581U 18062A   25341.41395974  .00000059  00000+0  00000+0 0  9997", "line2": "2 43581  54.0890 188.8244 0002124 353.2088   6.8590  1.86228654 50063"}}, "geometry": {"type": "Point", "coordinates": [17.769748544058512, -12.134265757559367]}}, {"type": "Feature", "properties": {"norad_id": 43582, "name": "BEIDOU-3 M6 (C24)", "group": "gnss", "lat": -50.81422517977658, "lon": 126.01666813885515, "alt_km": 21544.415639269442, "timestamp": "2025-12-08T05:48:09.278721+00:00", "meta": {"OBJECT_NAME": "BEIDOU-3 M6 (C24)", "OBJECT_ID": "2018-062B", "EPOCH": "2025-12-06T17:45:46.056960", "MEAN_MOTION": 1.86229666, "ECCENTRICITY": 0.00077578, "INCLINATION": 54.0886, "RA_OF_ASC_NODE": 188.8365, "ARG_OF_PERICENTER": 46.2295, "MEAN_ANOMALY": 313.9106, "EPHEMERIS_TYPE": 0, "CLASSIFICATION_TYPE": "U", "NORAD_CAT_ID": 43582, "ELEMENT_SET_NO": 999, "REV_AT_EPOCH": 5005, "BSTAR": 0, "MEAN_MOTION_DOT": 6.8e-07, "MEAN_MOTION_DDOT": 0}, "tle": {"line1": "1 43582U 18062B   25340.74011640  .00000068  00000+0  00000+0 0  9998", "line2": "2 43582  54.0886 188.8365 0007757  46.2295 313.9106  1.86229666 50057"}}, "geometry": {"type": "Point", "coordinates": [126.01666813885515, -50.81422517977658]}}, {"type": "Feature", "properties": {"norad_id": 43602, "name": "BEIDOU-3 M12 (C26)", "group": "gnss", "lat": -25.069926500966723, "lon": 167.77242625304567, "alt_km": 21523.880537274963, "timestamp": "2025-12-08T05:48:09.278735+00:00", "meta": {"OBJECT_NAME": "BEIDOU-3 M12 (C26)", "OBJECT_ID": "2018-067A", "EPOCH": "2025-12-07T05:09:21.328416", "MEAN_MOTION": 1.86227676, "ECCENTRICITY": 0.00091602, "INCLINATION": 54.1831, "RA_OF_ASC_NODE": 187.5507, "ARG_OF_PERICENTER": 40.7736, "MEAN_ANOMALY": 319.3651, "EPHEMERIS_TYPE": 0, "CLASSIFICATION_TYPE": "U", "NORAD_CAT_ID": 43602, "ELEMENT_SET_NO": 999, "REV_AT_EPOCH": 4954, "BSTAR": 0, "MEAN_MOTION_DOT": 6.2e-07, "MEAN_MOTION_DDOT": 0}, "tle": {"line1": "1 43602U 18067A   25341.21483019  .00000062  00000+0  00000+0 0  9996", "line2": "2 43602  54.1831 187.5507 0009160  40.7736 319.3651  1.86227676 49540"}}, "geometry": {"type": "Point", "coordinates": [167.77242625304567, -25.069926500966723]}}, {"type": "Feature", "properties": {"norad_id": 43603, "name": "BEIDOU-3 M11 (C25)", "group": "gnss", "lat": -43.65804290467507, "lon": 51.067423299315074, "alt_km": 21547.97706233534, "timestamp": "2025-12-08T05:48:09.278746+00:00", "meta": {"OBJECT_NAME": "BEIDOU-3 M11 (C25)", "OBJECT_ID": "2018-067B", "EPOCH": "2025-12-07T08:23:01.597056", "MEAN_MOTION": 1.8622716, "ECCENTRICITY": 0.00055888, "INCLINATION": 54.1804, "RA_OF_ASC_NODE": 187.5103, "ARG_OF_PERICENTER": 36.6021, "MEAN_ANOMALY": 323.5051, "EPHEMERIS_TYPE": 0, "CLASSIFICATION_TYPE": "U", "NORAD_CAT_ID": 43603, "ELEMENT_SET_NO": 999, "REV_AT_EPOCH": 4957, "BSTAR": 0, "MEAN_MOTION_DOT": 6e-07, "MEAN_MOTION_DDOT": 0}, "tle": {"line1": "1 43603U 18067B   25341.34932404  .00000060  00000+0  00000+0 0  9996", "line2": "2 43603  54.1804 187.5103 0005588  36.6021 323.5051  1.86227160 49576"}}, "geometry": {"type": "Point", "coordinates": [51.067423299315074, -43.65804290467507]}}, {"type": "Feature", "properties": {"norad_id": 43622, "name": "BEIDOU-3 M13 (C32)", "group": "gnss", "lat": -56.38951587197226, "lon": -25.69747434519222, "alt_km": 21520.57045851497, "timestamp": "2025-12-08T05:48:09.278759+00:00", "meta": {"OBJECT_NAME": "BEIDOU-3 M13 (C32)", "OBJECT_ID": "2018-072A", "EPOCH": "2025-12-03T13:07:53.541408", "MEAN_MOTION": 1.86230692, "ECCENTRICITY": 0.00056735, "INCLINATION": 56.4512, "RA_OF_ASC_NODE": 69.1249, "ARG_OF_PERICENTER": 298.6305, "MEAN_ANOMALY": 61.3164, "EPHEMERIS_TYPE": 0, "CLASSIFICATION_TYPE": "U", "NORAD_CAT_ID": 43622, "ELEMENT_SET_NO": 999, "REV_AT_EPOCH": 4901, "BSTAR": 0, "MEAN_MOTION_DOT": -5e-07, "MEAN_MOTION_DDOT": 0}, "tle": {"line1": "1 43622U 18072A   25337.54714747 -.00000050  00000+0  00000+0 0  9998", "line2": "2 43622  56.4512  69.1249 0005673 298.6305  61.3164  1.86230692 49019"}}, "geometry": {"type": "Point", "coordinates": [-25.69747434519222, -56.38951587197226]}}, {"type": "Feature", "properties": {"norad_id": 43623, "name": "BEIDOU-3 M14 (C33)", "group": "gnss", "lat": -1.9367640053135082, "lon": 67.68962987256423, "alt_km": 21520.455250806015, "timestamp": "2025-12-08T05:48:09.278770+00:00", "meta": {"OBJECT_NAME": "BEIDOU-3 M14 (C33)", "OBJECT_ID": "2018-072B", "EPOCH": "2025-12-07T04:06:42.144768", "MEAN_MOTION": 1.86230742, "ECCENTRICITY": 0.00032284, "INCLINATION": 56.456, "RA_OF_ASC_NODE": 68.9987, "ARG_OF_PERICENTER": 333.0096, "MEAN_ANOMALY": 26.9917, "EPHEMERIS_TYPE": 0, "CLASSIFICATION_TYPE": "U", "NORAD_CAT_ID": 43623, "ELEMENT_SET_NO": 999, "REV_AT_EPOCH": 4907, "BSTAR": 0, "MEAN_MOTION_DOT": -4.5e-07, "MEAN_MOTION_DDOT": 0}, "tle": {"line1": "1 43623U 18072B   25341.17132112 -.00000045  00000+0  00000+0 0  9997", "line2": "2 43623  56.4560  68.9987 0003228 333.0096  26.9917  1.86230742 49079"}}, "geometry": {"type": "Point", "coordinates": [67.68962987256423, -1.9367640053135082]}}, {"type": "Feature", "properties": {"norad_id": 43647, "name": "BEIDOU-3 M16 (C35)", "group": "gnss", "lat": -50.46507899249788, "lon": -172.6949334091963, "alt_km": 21545.552984164267, "timestamp": "2025-12-08T05:48:09.278780+00:00", "meta": {"OBJECT_NAME": "BEIDOU-3 M16 (C35)", "OBJECT_ID": "2018-078A", "EPOCH": "2025-12-07T07:54:04.576896", "MEAN_MOTION": 1.86232109, "ECCENTRICITY": 0.00071609, "INCLINATION": 54.2671, "RA_OF_ASC_NODE": 306.7103, "ARG_OF_PERICENTER": 19.0723, "MEAN_ANOMALY": 340.9397, "EPHEMERIS_TYPE": 0, "CLASSIFICATION_TYPE": "U", "NORAD_CAT_ID": 43647, "ELEMENT_SET_NO": 999, "REV_AT_EPOCH": 4858, "BSTAR": 0, "MEAN_MOTION_DOT": -7e-07, "MEAN_MOTION_DDOT": 0}, "tle": {"line1": "1 43647U 18078A   25341.32921964 -.00000070  00000+0  00000+0 0  9995", "line2": "2 43647  54.2671 306.7103 0007160  19.0723 340.9397  1.86232109 48589"}}, "geometry": {"type": "Point", "coordinates": [-172.6949334091963, -50.46507899249788]}}, {"type": "Feature", "properties": {"norad_id": 43648, "name": "BEIDOU-3 M15 (C34)", "group": "gnss", "lat": 11.905847995699126, "lon": 117.9326466163717, "alt_km": 21535.294457754433, "timestamp": "2025-12-08T05:48:09.278791+00:00", "meta": {"OBJECT_NAME": "BEIDOU-3 M15 (C34)", "OBJECT_ID": "2018-078B", "EPOCH": "2025-12-05T07:27:18.667008", "MEAN_MOTION": 1.86231965, "ECCENTRICITY": 0.00036856, "INCLINATION": 54.2646, "RA_OF_ASC_NODE": 306.7819, "ARG_OF_PERICENTER": 17.7509, "MEAN_ANOMALY": 342.2442, "EPHEMERIS_TYPE": 0, "CLASSIFICATION_TYPE": "U", "NORAD_CAT_ID": 43648, "ELEMENT_SET_NO": 999, "REV_AT_EPOCH": 4856, "BSTAR": 0, "MEAN_MOTION_DOT": -6.9e-07, "MEAN_MOTION_DDOT": 0}, "tle": {"line1": "1 43648U 18078B   25339.31063272 -.00000069  00000+0  00000+0 0  9999", "line2": "2 43648  54.2646 306.7819 0003685  17.7509 342.2442  1.86231965 48564"}}, "geometry": {"type": "Point", "coordinates": [117.9326466163717, 11.905847995699126]}}]}